BEESAT-7                
1 48084U 21022AN  23237.18629759  .00022176  00000+0  95153-3 0  9998
2 48084  97.4836 135.7787 0017997  89.8966 270.4332 15.22585430132158
BEESAT-8                
1 48085U 21022AP  23237.50621206  .00009298  00000+0  46249-3 0  9996
2 48085  97.4907 135.1957 0019166  91.4995 268.8434 15.17681830132690
LEDSAT                  
1 49069U 21073D   23237.15188464  .00009214  00000+0  48858-3 0  9996
2 49069  97.4772 306.8986 0022409 239.4528 120.4493 15.15373152111342
SPORT                   
1 55129U 98067UW  23237.48705073  .00142188  00000+0  64383-3 0  9993
2 55129  51.6262 321.0313 0008401 359.3153   0.7837 15.82956111 37465
